{
  "type": "FeatureCollection",
  "features": [
    {
      "type": "Feature",
      "properties": {
        "norad_id": 29904,
        "name": "FENGYUN 1C DEB",
        "group": "fengyun-1c-debris",
        "lat": -28.275200962648476,
        "lon": 27.122480457220163,
        "alt_km": 602.2643737497483,
        "timestamp": "2025-12-10T11:33:53.657564+00:00",
        "meta_object_name": "FENGYUN 1C DEB",
        "meta_object_id": "1999-025HA",
        "meta_epoch": "2025-12-10T01:43:03.616032",
        "meta_mean_motion": 14.44462899,
        "meta_eccentricity": 0.020791,
        "meta_inclination": 99.0418,
        "meta_ra_of_asc_node": 21.7726,
        "meta_arg_of_pericenter": 326.6285,
        "meta_mean_anomaly": 32.1939,
        "meta_ephemeris_type": 0,
        "meta_classification_type": "U",
        "meta_norad_cat_id": 29904,
        "meta_element_set_no": 999,
        "meta_rev_at_epoch": 99025,
        "meta_bstar": 0.00060707,
        "meta_mean_motion_dot": 2.668e-05,
        "meta_mean_motion_ddot": 0,
        "tle_line1": "1 29904U 99025HA  25344.07156963  .00002668  00000+0  60707-3 0  9998",
        "tle_line2": "2 29904  99.0418  21.7726 0207910 326.6285  32.1939 14.44462899990256"
      },
      "geometry": {
        "type": "Point",
        "coordinates": [
          27.122480457220163,
          -28.275200962648476
        ]
      }
    },
    {
      "type": "Feature",
      "properties": {
        "norad_id": 29906,
        "name": "FENGYUN 1C DEB",
        "group": "fengyun-1c-debris",
        "lat": -24.10992534526913,
        "lon": -96.17720625793511,
        "alt_km": 714.9527988706686,
        "timestamp": "2025-12-10T11:33:53.657575+00:00",
        "meta_object_name": "FENGYUN 1C DEB",
        "meta_object_id": "1999-025HC",
        "meta_epoch": "2025-12-10T02:20:39.888096",
        "meta_mean_motion": 14.49557122,
        "meta_eccentricity": 0.0037218,
        "meta_inclination": 98.7055,
        "meta_ra_of_asc_node": 87.3582,
        "meta_arg_of_pericenter": 157.0175,
        "meta_mean_anomaly": 203.2693,
        "meta_ephemeris_type": 0,
        "meta_classification_type": "U",
        "meta_norad_cat_id": 29906,
        "meta_element_set_no": 999,
        "meta_rev_at_epoch": 98119,
        "meta_bstar": 0.0037703,
        "meta_mean_motion_dot": 0.00014575,
        "meta_mean_motion_ddot": 0,
        "tle_line1": "1 29906U 99025HC  25344.09768389  .00014575  00000+0  37703-2 0  9992",
        "tle_line2": "2 29906  98.7055  87.3582 0037218 157.0175 203.2693 14.49557122981195"
      },
      "geometry": {
        "type": "Point",
        "coordinates": [
          -96.17720625793511,
          -24.10992534526913
        ]
      }
    },
    {
      "type": "Feature",
      "properties": {
        "norad_id": 29907,
        "name": "FENGYUN 1C DEB",
        "group": "fengyun-1c-debris",
        "lat": -60.046325463384186,
        "lon": 67.29080321334362,
        "alt_km": 816.3171421855131,
        "timestamp": "2025-12-10T11:33:53.657585+00:00",
        "meta_object_name": "FENGYUN 1C DEB",
        "meta_object_id": "1999-025HD",
        "meta_epoch": "2025-12-10T03:29:18.466368",
        "meta_mean_motion": 14.1160964,
        "meta_eccentricity": 0.00838,
        "meta_inclination": 99.1114,
        "meta_ra_of_asc_node": 50.7798,
        "meta_arg_of_pericenter": 256.7588,
        "meta_mean_anomaly": 132.1332,
        "meta_ephemeris_type": 0,
        "meta_classification_type": "U",
        "meta_norad_cat_id": 29907,
        "meta_element_set_no": 999,
        "meta_rev_at_epoch": 96562,
        "meta_bstar": 0.0021011,
        "meta_mean_motion_dot": 3.901e-05,
        "meta_mean_motion_ddot": 0,
        "tle_line1": "1 29907U 99025HD  25344.14535262  .00003901  00000+0  21011-2 0  9997",
        "tle_line2": "2 29907  99.1114  50.7798 0083800 256.7588 132.1332 14.11609640965625"
      },
      "geometry": {
        "type": "Point",
        "coordinates": [
          67.29080321334362,
          -60.046325463384186
        ]
      }
    },
    {
      "type": "Feature",
      "properties": {
        "norad_id": 29909,
        "name": "FENGYUN 1C DEB",
        "group": "fengyun-1c-debris",
        "lat": -54.29956706859811,
        "lon": -103.9990688014332,
        "alt_km": 739.0345393909483,
        "timestamp": "2025-12-10T11:33:53.657595+00:00",
        "meta_object_name": "FENGYUN 1C DEB",
        "meta_object_id": "1999-025HF",
        "meta_epoch": "2025-12-09T18:40:29.707104",
        "meta_mean_motion": 14.55038346,
        "meta_eccentricity": 0.0038355,
        "meta_inclination": 98.6348,
        "meta_ra_of_asc_node": 87.4825,
        "meta_arg_of_pericenter": 24.6528,
        "meta_mean_anomaly": 126.5258,
        "meta_ephemeris_type": 0,
        "meta_classification_type": "U",
        "meta_norad_cat_id": 29909,
        "meta_element_set_no": 999,
        "meta_rev_at_epoch": 98362,
        "meta_bstar": 0.0031446,
        "meta_mean_motion_dot": 0.00013662,
        "meta_mean_motion_ddot": 0,
        "tle_line1": "1 29909U 99025HF  25343.77812161  .00013662  00000+0  31446-2 0  9991",
        "tle_line2": "2 29909  98.6348  87.4825 0038355  24.6528 126.5258 14.55038346983620"
      },
      "geometry": {
        "type": "Point",
        "coordinates": [
          -103.9990688014332,
          -54.29956706859811
        ]
      }
    },
    {
      "type": "Feature",
      "properties": {
        "norad_id": 29911,
        "name": "FENGYUN 1C DEB",
        "group": "fengyun-1c-debris",
        "lat": -44.175789443061156,
        "lon": 36.20438847533591,
        "alt_km": 854.2303948334575,
        "timestamp": "2025-12-10T11:33:53.657605+00:00",
        "meta_object_name": "FENGYUN 1C DEB",
        "meta_object_id": "1999-025HH",
        "meta_epoch": "2025-12-10T01:45:46.786752",
        "meta_mean_motion": 14.18841708,
        "meta_eccentricity": 0.0027395,
        "meta_inclination": 98.7156,
        "meta_ra_of_asc_node": 27.2313,
        "meta_arg_of_pericenter": 158.3227,
        "meta_mean_anomaly": 231.8879,
        "meta_ephemeris_type": 0,
        "meta_classification_type": "U",
        "meta_norad_cat_id": 29911,
        "meta_element_set_no": 999,
        "meta_rev_at_epoch": 97393,
        "meta_bstar": 0.00099062,
        "meta_mean_motion_dot": 2.026e-05,
        "meta_mean_motion_ddot": 0,
        "tle_line1": "1 29911U 99025HH  25344.07345818  .00002026  00000+0  99062-3 0  9999",
        "tle_line2": "2 29911  98.7156  27.2313 0027395 158.3227 231.8879 14.18841708973933"
      },
      "geometry": {
        "type": "Point",
        "coordinates": [
          36.20438847533591,
          -44.175789443061156
        ]
      }
    },
    {
      "type": "Feature",
      "properties": {
        "norad_id": 29912,
        "name": "FENGYUN 1C DEB",
        "group": "fengyun-1c-debris",
        "lat": 74.24101150440401,
        "lon": 48.84581993872164,
        "alt_km": 767.7448401428528,
        "timestamp": "2025-12-10T11:33:53.657615+00:00",
        "meta_object_name": "FENGYUN 1C DEB",
        "meta_object_id": "1999-025HJ",
        "meta_epoch": "2025-12-10T03:07:50.741760",
        "meta_mean_motion": 14.42916992,
        "meta_eccentricity": 0.0042835,
        "meta_inclination": 98.7381,
        "meta_ra_of_asc_node": 81.5113,
        "meta_arg_of_pericenter": 226.4434,
        "meta_mean_anomaly": 186.2551,
        "meta_ephemeris_type": 0,
        "meta_classification_type": "U",
        "meta_norad_cat_id": 29912,
        "meta_element_set_no": 999,
        "meta_rev_at_epoch": 98001,
        "meta_bstar": 0.0033821,
        "meta_mean_motion_dot": 0.00011402,
        "meta_mean_motion_ddot": 0,
        "tle_line1": "1 29912U 99025HJ  25344.13044840  .00011402  00000+0  33821-2 0  9996",
        "tle_line2": "2 29912  98.7381  81.5113 0042835 226.4434 186.2551 14.42916992980010"
      },
      "geometry": {
        "type": "Point",
        "coordinates": [
          48.84581993872164,
          74.24101150440401
        ]
      }
    },
    {
      "type": "Feature",
      "properties": {
        "norad_id": 29913,
        "name": "FENGYUN 1C DEB",
        "group": "fengyun-1c-debris",
        "lat": 63.08295679632946,
        "lon": -178.8662802587559,
        "alt_km": 904.9281125622911,
        "timestamp": "2025-12-10T11:33:53.657625+00:00",
        "meta_object_name": "FENGYUN 1C DEB",
        "meta_object_id": "1999-025HK",
        "meta_epoch": "2025-12-09T23:13:36.996384",
        "meta_mean_motion": 14.07377005,
        "meta_eccentricity": 0.0061907,
        "meta_inclination": 98.7875,
        "meta_ra_of_asc_node": 342.8955,
        "meta_arg_of_pericenter": 279.4011,
        "meta_mean_anomaly": 113.1322,
        "meta_ephemeris_type": 0,
        "meta_classification_type": "U",
        "meta_norad_cat_id": 29913,
        "meta_element_set_no": 999,
        "meta_rev_at_epoch": 96926,
        "meta_bstar": 0.00040931,
        "meta_mean_motion_dot": 6.57e-06,
        "meta_mean_motion_ddot": 0,
        "tle_line1": "1 29913U 99025HK  25343.96778931  .00000657  00000+0  40931-3 0  9993",
        "tle_line2": "2 29913  98.7875 342.8955 0061907 279.4011 113.1322 14.07377005969262"
      },
      "geometry": {
        "type": "Point",
        "coordinates": [
          -178.8662802587559,
          63.08295679632946
        ]
      }
    }
  ]
}